[{"AreaCode":"201","City":"Newark","State":"NJ"},{"AreaCode":"202","City":"Washington","State":"DC"},{"AreaCode":"203","City":"New Haven","State":"CT"},{"AreaCode":"204","City":"Yorkton","State":"MB"},{"AreaCode":"205","City":"Birmingham","State":"AL"},{"AreaCode":"206","City":"Seattle","State":"WA"},{"AreaCode":"207","City":"Portland","State":"ME"},{"AreaCode":"208","City":"Boise","State":"ID"},{"AreaCode":"209","City":"Fresno","State":"CA"},{"AreaCode":"210","City":"San Antonio","State":"TX"},{"AreaCode":"212","City":"New York","State":"NY"},{"AreaCode":"213","City":"Los Angeles","State":"CA"},{"AreaCode":"214","City":"Dallas","State":"TX"},{"AreaCode":"215","City":"Philadelphia","State":"PA"},{"AreaCode":"216","City":"Cleveland","State":"OH"},{"AreaCode":"217","City":"Chicago","State":"IL"},{"AreaCode":"218","City":"Duluth","State":"MN"},{"AreaCode":"219","City":"Valparaiso","State":"IN"},{"AreaCode":"224","City":"Chicago","State":"IL"},{"AreaCode":"225","City":"Baton Rouge","State":"LA"},{"AreaCode":"226","City":"Wyoming","State":"ON"},{"AreaCode":"228","City":"Gulfport","State":"MS"},{"AreaCode":"229","City":"Albany","State":"GA"},{"AreaCode":"231","City":"Muskegon","State":"MI"},{"AreaCode":"234","City":"Akron","State":"OH"},{"AreaCode":"236","City":"Victoria","State":"BC"},{"AreaCode":"239","City":"Fort Myers","State":"FL"},{"AreaCode":"240","City":"Baltimore","State":"MD"},{"AreaCode":"248","City":"Detroit","State":"MI"},{"AreaCode":"249","City":"Whitefish Falls","State":"ON"},{"AreaCode":"250","City":"Zeballos","State":"BC"},{"AreaCode":"251","City":"Mobile","State":"AL"},{"AreaCode":"252","City":"Greenville","State":"NC"},{"AreaCode":"253","City":"Seattle","State":"WA"},{"AreaCode":"254","City":"Killeen","State":"TX"},{"AreaCode":"256","City":"Huntsville","State":"AL"},{"AreaCode":"260","City":"Fort Wayne","State":"IN"},{"AreaCode":"262","City":"Milwaukee","State":"WI"},{"AreaCode":"267","City":"Philadelphia","State":"PA"},{"AreaCode":"269","City":"Kalamazoo","State":"MI"},{"AreaCode":"270","City":"Bowling Green","State":"KY"},{"AreaCode":"272","City":"Lake Ariel","State":"PA"},{"AreaCode":"276","City":"Martinsville","State":"VA"},{"AreaCode":"281","City":"Houston","State":"TX"},{"AreaCode":"289","City":"Woodbridge","State":"ON"},{"AreaCode":"301","City":"Baltimore","State":"MD"},{"AreaCode":"302","City":"Wilmington","State":"DE"},{"AreaCode":"303","City":"Denver","State":"CO"},{"AreaCode":"304","City":"Charleston","State":"WV"},{"AreaCode":"305","City":"Miami","State":"FL"},{"AreaCode":"306","City":"Yorkton","State":"SK"},{"AreaCode":"307","City":"Casper","State":"WY"},{"AreaCode":"308","City":"Grand Island","State":"NE"},{"AreaCode":"309","City":"Peoria","State":"IL"},{"AreaCode":"310","City":"Los Angeles","State":"CA"},{"AreaCode":"312","City":"Chicago","State":"IL"},{"AreaCode":"313","City":"Detroit","State":"MI"},{"AreaCode":"314","City":"Saint Louis","State":"MO"},{"AreaCode":"315","City":"Syracuse","State":"NY"},{"AreaCode":"316","City":"Wichita","State":"KS"},{"AreaCode":"317","City":"Indianapolis","State":"IN"},{"AreaCode":"318","City":"Shreveport","State":"LA"},{"AreaCode":"319","City":"Cedar Rapids","State":"IA"},{"AreaCode":"320","City":"Saint Cloud","State":"MN"},{"AreaCode":"321","City":"Orlando","State":"FL"},{"AreaCode":"323","City":"Los Angeles","State":"CA"},{"AreaCode":"325","City":"Abilene","State":"TX"},{"AreaCode":"330","City":"Akron","State":"OH"},{"AreaCode":"331","City":"Lemont","State":"IL"},{"AreaCode":"334","City":"Montgomery","State":"AL"},{"AreaCode":"336","City":"Greensboro","State":"NC"},{"AreaCode":"337","City":"Lafayette","State":"LA"},{"AreaCode":"339","City":"Boston","State":"MA"},{"AreaCode":"340","City":"Charlotte Amalie","State":"VI"},{"AreaCode":"343","City":"Vankleek Hill","State":"ON"},{"AreaCode":"346","City":"Houston","State":"TX"},{"AreaCode":"347","City":"Brooklyn","State":"NY"},{"AreaCode":"351","City":"Danvers","State":"MA"},{"AreaCode":"352","City":"Gainesville","State":"FL"},{"AreaCode":"360","City":"Seattle","State":"WA"},{"AreaCode":"361","City":"Corpus Christi","State":"TX"},{"AreaCode":"365","City":"Tottenham","State":"ON"},{"AreaCode":"385","City":"Salt Lake City","State":"UT"},{"AreaCode":"386","City":"Daytona Beach","State":"FL"},{"AreaCode":"401","City":"Providence","State":"RI"},{"AreaCode":"402","City":"Omaha","State":"NE"},{"AreaCode":"403","City":"Youngstown","State":"AB"},{"AreaCode":"404","City":"Atlanta","State":"GA"},{"AreaCode":"405","City":"Oklahoma City","State":"OK"},{"AreaCode":"406","City":"Billings","State":"MT"},{"AreaCode":"407","City":"Orlando","State":"FL"},{"AreaCode":"408","City":"San Jose","State":"CA"},{"AreaCode":"409","City":"Beaumont","State":"TX"},{"AreaCode":"410","City":"Baltimore","State":"MD"},{"AreaCode":"412","City":"Pittsburgh","State":"PA"},{"AreaCode":"413","City":"Springfield","State":"MA"},{"AreaCode":"414","City":"Milwaukee","State":"WI"},{"AreaCode":"415","City":"San Francisco","State":"CA"},{"AreaCode":"416","City":"Toronto","State":"ON"},{"AreaCode":"417","City":"Springfield","State":"MO"},{"AreaCode":"418","City":"Ville Degelis","State":"QC"},{"AreaCode":"419","City":"Toledo","State":"OH"},{"AreaCode":"423","City":"Chattanooga","State":"TN"},{"AreaCode":"424","City":"Los Angeles","State":"CA"},{"AreaCode":"425","City":"Seattle","State":"WA"},{"AreaCode":"430","City":"Longview","State":"TX"},{"AreaCode":"431","City":"Winnipeg","State":"MB"},{"AreaCode":"432","City":"Midland","State":"TX"},{"AreaCode":"434","City":"Lynchburg","State":"VA"},{"AreaCode":"435","City":"Park City","State":"UT"},{"AreaCode":"437","City":"Toronto","State":"ON"},{"AreaCode":"438","City":"Saint Genevieve","State":"QC"},{"AreaCode":"440","City":"Cleveland","State":"OH"},{"AreaCode":"442","City":"Victorville","State":"CA"},{"AreaCode":"443","City":"Baltimore","State":"MD"},{"AreaCode":"450","City":"Yamaska","State":"QC"},{"AreaCode":"458","City":"Eugene","State":"OR"},{"AreaCode":"469","City":"Dallas","State":"TX"},{"AreaCode":"470","City":"Atlanta","State":"GA"},{"AreaCode":"475","City":"New Haven","State":"CT"},{"AreaCode":"478","City":"Macon","State":"GA"},{"AreaCode":"479","City":"Springdale","State":"AR"},{"AreaCode":"480","City":"Phoenix","State":"AZ"},{"AreaCode":"484","City":"Philadelphia","State":"PA"},{"AreaCode":"501","City":"Little Rock","State":"AR"},{"AreaCode":"502","City":"Louisville","State":"KY"},{"AreaCode":"503","City":"Portland","State":"OR"},{"AreaCode":"504","City":"New Orleans","State":"LA"},{"AreaCode":"505","City":"Albuquerque","State":"NM"},{"AreaCode":"506","City":"Youngs Cove Road","State":"NB"},{"AreaCode":"507","City":"Rochester","State":"MN"},{"AreaCode":"508","City":"Boston","State":"MA"},{"AreaCode":"509","City":"Spokane","State":"WA"},{"AreaCode":"510","City":"San Jose","State":"CA"},{"AreaCode":"512","City":"Austin","State":"TX"},{"AreaCode":"513","City":"Cincinnati","State":"OH"},{"AreaCode":"514","City":"Saint Genevieve","State":"QC"},{"AreaCode":"515","City":"Des Moines","State":"IA"},{"AreaCode":"516","City":"Springfield Gardens","State":"NY"},{"AreaCode":"517","City":"Lansing","State":"MI"},{"AreaCode":"518","City":"Schenectady","State":"NY"},{"AreaCode":"519","City":"Zurich","State":"ON"},{"AreaCode":"520","City":"Phoenix","State":"AZ"},{"AreaCode":"530","City":"Sacramento","State":"CA"},{"AreaCode":"531","City":"Lincoln","State":"NE"},{"AreaCode":"534","City":"Chippewa Falls","State":"WI"},{"AreaCode":"539","City":"Tulsa","State":"OK"},{"AreaCode":"540","City":"Fredericksburg","State":"VA"},{"AreaCode":"541","City":"Eugene","State":"OR"},{"AreaCode":"551","City":"Newark","State":"NJ"},{"AreaCode":"559","City":"Fresno","State":"CA"},{"AreaCode":"561","City":"West Palm Beach","State":"FL"},{"AreaCode":"562","City":"Los Angeles","State":"CA"},{"AreaCode":"563","City":"Davenport","State":"IA"},{"AreaCode":"567","City":"Toledo","State":"OH"},{"AreaCode":"570","City":"Wilkes Barre","State":"PA"},{"AreaCode":"571","City":"Alexandria","State":"VA"},{"AreaCode":"573","City":"Columbia","State":"MO"},{"AreaCode":"574","City":"South Bend","State":"IN"},{"AreaCode":"575","City":"Las Cruces","State":"NM"},{"AreaCode":"579","City":"Waterloo","State":"QC"},{"AreaCode":"580","City":"Oklahoma City","State":"OK"},{"AreaCode":"581","City":"Vallee Jonction","State":"QC"},{"AreaCode":"585","City":"Buffalo","State":"NY"},{"AreaCode":"586","City":"Detroit","State":"MI"},{"AreaCode":"587","City":"Wetaskiwin","State":"AB"},{"AreaCode":"601","City":"Jackson","State":"MS"},{"AreaCode":"602","City":"Phoenix","State":"AZ"},{"AreaCode":"603","City":"Manchester","State":"NH"},{"AreaCode":"604","City":"Yale","State":"BC"},{"AreaCode":"605","City":"Sioux Falls","State":"SD"},{"AreaCode":"606","City":"Sharpsburg","State":"KY"},{"AreaCode":"607","City":"Freeville","State":"NY"},{"AreaCode":"608","City":"Madison","State":"WI"},{"AreaCode":"609","City":"Camden","State":"NJ"},{"AreaCode":"610","City":"Philadelphia","State":"PA"},{"AreaCode":"612","City":"Minneapolis","State":"MN"},{"AreaCode":"613","City":"Yarker","State":"ON"},{"AreaCode":"614","City":"Columbus","State":"OH"},{"AreaCode":"615","City":"Nashville","State":"TN"},{"AreaCode":"616","City":"Grand Rapids","State":"MI"},{"AreaCode":"617","City":"Boston","State":"MA"},{"AreaCode":"618","City":"Belleville","State":"IL"},{"AreaCode":"619","City":"San Diego","State":"CA"},{"AreaCode":"620","City":"Hutchinson","State":"KS"},{"AreaCode":"623","City":"Phoenix","State":"AZ"},{"AreaCode":"626","City":"Los Angeles","State":"CA"},{"AreaCode":"630","City":"Chicago","State":"IL"},{"AreaCode":"631","City":"Deer Park","State":"NY"},{"AreaCode":"636","City":"Saint Louis","State":"MO"},{"AreaCode":"639","City":"Regina","State":"SK"},{"AreaCode":"641","City":"Beaman","State":"IA"},{"AreaCode":"646","City":"Brooklyn","State":"NY"},{"AreaCode":"647","City":"Toronto","State":"ON"},{"AreaCode":"650","City":"San Jose","State":"CA"},{"AreaCode":"651","City":"Minneapolis","State":"MN"},{"AreaCode":"657","City":"Long Beach","State":"CA"},{"AreaCode":"660","City":"Otterville","State":"MO"},{"AreaCode":"661","City":"Bakersfield","State":"CA"},{"AreaCode":"662","City":"Southaven","State":"MS"},{"AreaCode":"667","City":"Baltimore","State":"MD"},{"AreaCode":"669","City":"San Jose","State":"CA"},{"AreaCode":"670","City":"Saipan","State":"NN"},{"AreaCode":"671","City":"Santa Rita","State":"GU"},{"AreaCode":"678","City":"Atlanta","State":"GA"},{"AreaCode":"681","City":"Charleston","State":"WV"},{"AreaCode":"682","City":"Dallas","State":"TX"},{"AreaCode":"684","City":"Pago Pago","State":"AS"},{"AreaCode":"701","City":"Fargo","State":"ND"},{"AreaCode":"702","City":"Las Vegas","State":"NV"},{"AreaCode":"703","City":"Alexandria","State":"VA"},{"AreaCode":"704","City":"Charlotte","State":"NC"},{"AreaCode":"705","City":"Woodville","State":"ON"},{"AreaCode":"706","City":"Augusta","State":"GA"},{"AreaCode":"707","City":"Santa Rosa","State":"CA"},{"AreaCode":"708","City":"Chicago","State":"IL"},{"AreaCode":"709","City":"Woody Point","State":"NL"},{"AreaCode":"712","City":"Sioux City","State":"IA"},{"AreaCode":"713","City":"Houston","State":"TX"},{"AreaCode":"714","City":"Long Beach","State":"CA"},{"AreaCode":"715","City":"Green Bay","State":"WI"},{"AreaCode":"716","City":"Buffalo","State":"NY"},{"AreaCode":"717","City":"Lancaster","State":"PA"},{"AreaCode":"718","City":"Brooklyn","State":"NY"},{"AreaCode":"719","City":"Colorado Springs","State":"CO"},{"AreaCode":"720","City":"Denver","State":"CO"},{"AreaCode":"724","City":"Pittsburgh","State":"PA"},{"AreaCode":"725","City":"Las Vegas","State":"NV"},{"AreaCode":"727","City":"Tampa","State":"FL"},{"AreaCode":"731","City":"Jackson","State":"TN"},{"AreaCode":"732","City":"Newark","State":"NJ"},{"AreaCode":"734","City":"Detroit","State":"MI"},{"AreaCode":"737","City":"Austin","State":"TX"},{"AreaCode":"740","City":"Columbus","State":"OH"},{"AreaCode":"747","City":"Los Angeles","State":"CA"},{"AreaCode":"754","City":"Fort Lauderdale","State":"FL"},{"AreaCode":"757","City":"Virginia Beach","State":"VA"},{"AreaCode":"760","City":"San Diego","State":"CA"},{"AreaCode":"762","City":"Augusta","State":"GA"},{"AreaCode":"763","City":"Minneapolis","State":"MN"},{"AreaCode":"765","City":"Indianapolis","State":"IN"},{"AreaCode":"769","City":"Jackson","State":"MS"},{"AreaCode":"770","City":"Atlanta","State":"GA"},{"AreaCode":"772","City":"Port Saint Lucie","State":"FL"},{"AreaCode":"773","City":"Chicago","State":"IL"},{"AreaCode":"774","City":"Boston","State":"MA"},{"AreaCode":"775","City":"Reno","State":"NV"},{"AreaCode":"778","City":"Youbou","State":"BC"},{"AreaCode":"779","City":"Rockford","State":"IL"},{"AreaCode":"780","City":"Zama","State":"AB"},{"AreaCode":"781","City":"Boston","State":"MA"},{"AreaCode":"785","City":"Topeka","State":"KS"},{"AreaCode":"786","City":"Miami","State":"FL"},{"AreaCode":"787","City":"Bayamon","State":"PR"},{"AreaCode":"801","City":"Salt Lake City","State":"UT"},{"AreaCode":"802","City":"Shelburne","State":"VT"},{"AreaCode":"803","City":"Columbia","State":"SC"},{"AreaCode":"804","City":"Richmond","State":"VA"},{"AreaCode":"805","City":"Bakersfield","State":"CA"},{"AreaCode":"806","City":"Lubbock","State":"TX"},{"AreaCode":"807","City":"Wunumin Lake","State":"ON"},{"AreaCode":"808","City":"Honolulu","State":"HI"},{"AreaCode":"810","City":"Flint","State":"MI"},{"AreaCode":"812","City":"Evansville","State":"IN"},{"AreaCode":"813","City":"Tampa","State":"FL"},{"AreaCode":"814","City":"Erie","State":"PA"},{"AreaCode":"815","City":"Chicago","State":"IL"},{"AreaCode":"816","City":"Kansas City","State":"MO"},{"AreaCode":"817","City":"Dallas","State":"TX"},{"AreaCode":"818","City":"Los Angeles","State":"CA"},{"AreaCode":"819","City":"Yamachiche","State":"QC"},{"AreaCode":"828","City":"Asheville","State":"NC"},{"AreaCode":"830","City":"New Braunfels","State":"TX"},{"AreaCode":"831","City":"Salinas","State":"CA"},{"AreaCode":"832","City":"Houston","State":"TX"},{"AreaCode":"843","City":"Charleston","State":"SC"},{"AreaCode":"845","City":"Poughkeepsie","State":"NY"},{"AreaCode":"847","City":"Chicago","State":"IL"},{"AreaCode":"848","City":"Newark","State":"NJ"},{"AreaCode":"850","City":"Pensacola","State":"FL"},{"AreaCode":"856","City":"Camden","State":"NJ"},{"AreaCode":"857","City":"Boston","State":"MA"},{"AreaCode":"858","City":"San Diego","State":"CA"},{"AreaCode":"859","City":"Lexington","State":"KY"},{"AreaCode":"860","City":"Hartford","State":"CT"},{"AreaCode":"862","City":"Newark","State":"NJ"},{"AreaCode":"863","City":"Kissimmee","State":"FL"},{"AreaCode":"864","City":"Greenville","State":"SC"},{"AreaCode":"865","City":"Knoxville","State":"TN"},{"AreaCode":"867","City":"Yellowknife","State":"NT"},{"AreaCode":"867","City":"Yellowknife","State":"NT"},{"AreaCode":"867","City":"Yellowknife","State":"NT"},{"AreaCode":"870","City":"Jonesboro","State":"AR"},{"AreaCode":"872","City":"Chicago","State":"IL"},{"AreaCode":"873","City":"Woburn","State":"QC"},{"AreaCode":"878","City":"Pittsburgh","State":"PA"},{"AreaCode":"901","City":"Memphis","State":"TN"},{"AreaCode":"902","City":"Yarmouth","State":"NS"},{"AreaCode":"903","City":"Tyler","State":"TX"},{"AreaCode":"904","City":"Jacksonville","State":"FL"},{"AreaCode":"905","City":"Woodbridge","State":"ON"},{"AreaCode":"906","City":"Deerton","State":"MI"},{"AreaCode":"907","City":"Anchorage","State":"AK"},{"AreaCode":"908","City":"Newark","State":"NJ"},{"AreaCode":"909","City":"Riverside","State":"CA"},{"AreaCode":"910","City":"Fayetteville","State":"NC"},{"AreaCode":"912","City":"Savannah","State":"GA"},{"AreaCode":"913","City":"Kansas City","State":"KS"},{"AreaCode":"914","City":"Manhattan","State":"NY"},{"AreaCode":"915","City":"El Paso","State":"TX"},{"AreaCode":"916","City":"Sacramento","State":"CA"},{"AreaCode":"917","City":"Brooklyn","State":"NY"},{"AreaCode":"918","City":"Tulsa","State":"OK"},{"AreaCode":"919","City":"Raleigh","State":"NC"},{"AreaCode":"920","City":"Milwaukee","State":"WI"},{"AreaCode":"925","City":"Oakland","State":"CA"},{"AreaCode":"928","City":"Phoenix","State":"AZ"},{"AreaCode":"929","City":"Brooklyn","State":"NY"},{"AreaCode":"931","City":"Clarksville","State":"TN"},{"AreaCode":"936","City":"Conroe","State":"TX"},{"AreaCode":"937","City":"Dayton","State":"OH"},{"AreaCode":"938","City":"Goodwater","State":"AL"},{"AreaCode":"939","City":"Bayamon","State":"PR"},{"AreaCode":"940","City":"Denton","State":"TX"},{"AreaCode":"941","City":"Sarasota","State":"FL"},{"AreaCode":"947","City":"Southfield","State":"MI"},{"AreaCode":"949","City":"Santa Ana","State":"CA"},{"AreaCode":"951","City":"Riverside","State":"CA"},{"AreaCode":"952","City":"Minneapolis","State":"MN"},{"AreaCode":"954","City":"Fort Lauderdale","State":"FL"},{"AreaCode":"956","City":"Laredo","State":"TX"},{"AreaCode":"970","City":"Ft Collins","State":"CO"},{"AreaCode":"971","City":"Portland","State":"OR"},{"AreaCode":"972","City":"Dallas","State":"TX"},{"AreaCode":"973","City":"Newark","State":"NJ"},{"AreaCode":"978","City":"Boston","State":"MA"},{"AreaCode":"979","City":"College Station","State":"TX"},{"AreaCode":"980","City":"Charlotte","State":"NC"},{"AreaCode":"984","City":"Raleigh","State":"NC"},{"AreaCode":"985","City":"New Orleans","State":"LA"},{"AreaCode":"989","City":"Saginaw","State":"MI"}]
